{
    "links": {
        "self": "http://www.neowsapp.com/rest/v1/neo/3653918?api_key=iIulBulltgU6a56xZRHN4H3l9WmuAYTsLGpBGhQ2"
    },
    "id": "3653918",
    "neo_reference_id": "3653918",
    "name": "(2013 WV44)",
    "designation": "2013 WV44",
    "nasa_jpl_url": "http://ssd.jpl.nasa.gov/sbdb.cgi?sstr=3653918",
    "absolute_magnitude_h": 22.7,
    "estimated_diameter": {
        "kilometers": {
            "estimated_diameter_min": 0.0766575574,
            "estimated_diameter_max": 0.1714115092
        },
        "meters": {
            "estimated_diameter_min": 76.6575573531,
            "estimated_diameter_max": 171.4115092306
        },
        "miles": {
            "estimated_diameter_min": 0.0476327831,
            "estimated_diameter_max": 0.1065101409
        },
        "feet": {
            "estimated_diameter_min": 251.5011804664,
            "estimated_diameter_max": 562.3737359442
        }
    },
    "is_potentially_hazardous_asteroid": false,
    "close_approach_data": [
        {
            "close_approach_date": "2013-08-22",
            "close_approach_date_full": "2013-Aug-22 07:45",
            "epoch_date_close_approach": 1377157500000,
            "relative_velocity": {
                "kilometers_per_second": "10.2742165854",
                "kilometers_per_hour": "36987.1797075257",
                "miles_per_hour": "22982.3950799345"
            },
            "miss_distance": {
                "astronomical": "0.1551423627",
                "lunar": "60.3503790903",
                "kilometers": "23208967.006687449",
                "miles": "14421383.3695228362"
            },
            "orbiting_body": "Earth"
        }
    ],
    "orbital_data": {
        "orbit_id": "6",
        "orbit_determination_date": "2017-04-06 08:43:30",
        "first_observation_date": "2013-11-27",
        "last_observation_date": "2013-12-25",
        "data_arc_in_days": 28,
        "observations_used": 15,
        "orbit_uncertainty": "7",
        "minimum_orbit_intersection": ".0129061",
        "jupiter_tisserand_invariant": "3.838",
        "epoch_osculation": "2459000.5",
        "eccentricity": ".5274838367454168",
        "semi_major_axis": "1.83718382625822",
        "inclination": "5.218719240738693",
        "ascending_node_longitude": "101.3864939114858",
        "orbital_period": "909.5516101487395",
        "perihelion_distance": ".8680990527769089",
        "perihelion_argument": "226.3463974194885",
        "aphelion_distance": "2.806268599739531",
        "perihelion_time": "2459255.217112862033",
        "mean_anomaly": "259.1831143970637",
        "mean_motion": ".3957994202672336",
        "equinox": "J2000",
        "orbit_class": {
            "orbit_class_type": "APO",
            "orbit_class_description": "Near-Earth asteroid orbits which cross the Earth’s orbit similar to that of 1862 Apollo",
            "orbit_class_range": "a (semi-major axis) > 1.0 AU; q (perihelion) < 1.017 AU"
        }
    },
    "is_sentry_object": false
}